{
  "type": "FeatureCollection",
  "features": [
    {
      "type": "Feature",
      "properties": {
        "norad_id": 29904,
        "name": "FENGYUN 1C DEB",
        "group": "fengyun-1c-debris",
        "lat": 43.75971257828527,
        "lon": 9.178364639006874,
        "alt_km": 680.0692232510355,
        "timestamp": "2025-12-06T11:28:11.334790+00:00",
        "meta_object_name": "FENGYUN 1C DEB",
        "meta_object_id": "1999-025HA",
        "meta_epoch": "2025-12-05T20:18:30.606048",
        "meta_mean_motion": 14.44438868,
        "meta_eccentricity": 0.02081678,
        "meta_inclination": 99.0423,
        "meta_ra_of_asc_node": 17.278,
        "meta_arg_of_pericenter": 339.2139,
        "meta_mean_anomaly": 20.0675,
        "meta_ephemeris_type": 0,
        "meta_classification_type": "U",
        "meta_norad_cat_id": 29904,
        "meta_element_set_no": 999,
        "meta_rev_at_epoch": 98964,
        "meta_bstar": 0.00081685087,
        "meta_mean_motion_dot": 3.614e-05,
        "meta_mean_motion_ddot": 0,
        "tle_line1": "1 29904U 99025HA  25339.84618757  .00003614  00000+0  81685-3 0  9991",
        "tle_line2": "2 29904  99.0423  17.2780 0208167 339.2139  20.0675 14.44438868989648"
      },
      "geometry": {
        "type": "Point",
        "coordinates": [
          9.178364639006874,
          43.75971257828527
        ]
      }
    },
    {
      "type": "Feature",
      "properties": {
        "norad_id": 29906,
        "name": "FENGYUN 1C DEB",
        "group": "fengyun-1c-debris",
        "lat": -22.512464139167378,
        "lon": -100.019367612415,
        "alt_km": 710.9583055388821,
        "timestamp": "2025-12-06T11:28:11.334800+00:00",
        "meta_object_name": "FENGYUN 1C DEB",
        "meta_object_id": "1999-025HC",
        "meta_epoch": "2025-12-05T19:37:41.687904",
        "meta_mean_motion": 14.49435107,
        "meta_eccentricity": 0.00374232,
        "meta_inclination": 98.7064,
        "meta_ra_of_asc_node": 82.9409,
        "meta_arg_of_pericenter": 169.6885,
        "meta_mean_anomaly": 190.5084,
        "meta_ephemeris_type": 0,
        "meta_classification_type": "U",
        "meta_norad_cat_id": 29906,
        "meta_element_set_no": 999,
        "meta_rev_at_epoch": 98057,
        "meta_bstar": 0.0048226727,
        "meta_mean_motion_dot": 0.00018622,
        "meta_mean_motion_ddot": 0,
        "tle_line1": "1 29906U 99025HC  25339.81784361  .00018622  00000+0  48227-2 0  9994",
        "tle_line2": "2 29906  98.7064  82.9409 0037423 169.6885 190.5084 14.49435107980570"
      },
      "geometry": {
        "type": "Point",
        "coordinates": [
          -100.019367612415,
          -22.512464139167378
        ]
      }
    },
    {
      "type": "Feature",
      "properties": {
        "norad_id": 29907,
        "name": "FENGYUN 1C DEB",
        "group": "fengyun-1c-debris",
        "lat": 57.15981040791685,
        "lon": -118.54555812858605,
        "alt_km": 897.9579442255199,
        "timestamp": "2025-12-06T11:28:11.334810+00:00",
        "meta_object_name": "FENGYUN 1C DEB",
        "meta_object_id": "1999-025HD",
        "meta_epoch": "2025-12-05T18:25:10.094016",
        "meta_mean_motion": 14.11574666,
        "meta_eccentricity": 0.008344,
        "meta_inclination": 99.1123,
        "meta_ra_of_asc_node": 46.3352,
        "meta_arg_of_pericenter": 269.06,
        "meta_mean_anomaly": 204.9244,
        "meta_ephemeris_type": 0,
        "meta_classification_type": "U",
        "meta_norad_cat_id": 29907,
        "meta_element_set_no": 999,
        "meta_rev_at_epoch": 96500,
        "meta_bstar": 0.0028453352,
        "meta_mean_motion_dot": 5.296e-05,
        "meta_mean_motion_ddot": 0,
        "tle_line1": "1 29907U 99025HD  25339.76747794  .00005296  00000+0  28453-2 0  9990",
        "tle_line2": "2 29907  99.1123  46.3352 0083440 269.0600 204.9244 14.11574666965005"
      },
      "geometry": {
        "type": "Point",
        "coordinates": [
          -118.54555812858605,
          57.15981040791685
        ]
      }
    },
    {
      "type": "Feature",
      "properties": {
        "norad_id": 29909,
        "name": "FENGYUN 1C DEB",
        "group": "fengyun-1c-debris",
        "lat": 24.44021901744312,
        "lon": -91.9657245713295,
        "alt_km": 722.3554118955708,
        "timestamp": "2025-12-06T11:28:11.334820+00:00",
        "meta_object_name": "FENGYUN 1C DEB",
        "meta_object_id": "1999-025HF",
        "meta_epoch": "2025-12-05T20:29:07.578816",
        "meta_mean_motion": 14.5493781,
        "meta_eccentricity": 0.00384375,
        "meta_inclination": 98.6356,
        "meta_ra_of_asc_node": 83.4292,
        "meta_arg_of_pericenter": 37.1347,
        "meta_mean_anomaly": 89.3243,
        "meta_ephemeris_type": 0,
        "meta_classification_type": "U",
        "meta_norad_cat_id": 29909,
        "meta_element_set_no": 999,
        "meta_rev_at_epoch": 98305,
        "meta_bstar": 0.0037040567,
        "meta_mean_motion_dot": 0.00016073,
        "meta_mean_motion_ddot": 0,
        "tle_line1": "1 29909U 99025HF  25339.85355994  .00016073  00000+0  37041-2 0  9997",
        "tle_line2": "2 29909  98.6356  83.4292 0038437  37.1347  89.3243 14.54937810983052"
      },
      "geometry": {
        "type": "Point",
        "coordinates": [
          -91.9657245713295,
          24.44021901744312
        ]
      }
    },
    {
      "type": "Feature",
      "properties": {
        "norad_id": 29911,
        "name": "FENGYUN 1C DEB",
        "group": "fengyun-1c-debris",
        "lat": 34.40775986499613,
        "lon": 17.666096861408406,
        "alt_km": 840.476918913183,
        "timestamp": "2025-12-06T11:28:11.334830+00:00",
        "meta_object_name": "FENGYUN 1C DEB",
        "meta_object_id": "1999-025HH",
        "meta_epoch": "2025-12-05T14:01:54.187680",
        "meta_mean_motion": 14.18822172,
        "meta_eccentricity": 0.00273149,
        "meta_inclination": 98.716,
        "meta_ra_of_asc_node": 22.8193,
        "meta_arg_of_pericenter": 170.7035,
        "meta_mean_anomaly": 344.5159,
        "meta_ephemeris_type": 0,
        "meta_classification_type": "U",
        "meta_norad_cat_id": 29911,
        "meta_element_set_no": 999,
        "meta_rev_at_epoch": 97329,
        "meta_bstar": 0.0014303748,
        "meta_mean_motion_dot": 2.943e-05,
        "meta_mean_motion_ddot": 0,
        "tle_line1": "1 29911U 99025HH  25339.58465495  .00002943  00000+0  14304-2 0  9996",
        "tle_line2": "2 29911  98.7160  22.8193 0027314 170.7035 344.5159 14.18822172973297"
      },
      "geometry": {
        "type": "Point",
        "coordinates": [
          17.666096861408406,
          34.40775986499613
        ]
      }
    },
    {
      "type": "Feature",
      "properties": {
        "norad_id": 29912,
        "name": "FENGYUN 1C DEB",
        "group": "fengyun-1c-debris",
        "lat": 9.221432169698378,
        "lon": -100.8011993239825,
        "alt_km": 738.5505189897731,
        "timestamp": "2025-12-06T11:28:11.334840+00:00",
        "meta_object_name": "FENGYUN 1C DEB",
        "meta_object_id": "1999-025HJ",
        "meta_epoch": "2025-12-05T23:18:14.118336",
        "meta_mean_motion": 14.42823687,
        "meta_eccentricity": 0.00426334,
        "meta_inclination": 98.7394,
        "meta_ra_of_asc_node": 77.2483,
        "meta_arg_of_pericenter": 238.4959,
        "meta_mean_anomaly": 181.022,
        "meta_ephemeris_type": 0,
        "meta_classification_type": "U",
        "meta_norad_cat_id": 29912,
        "meta_element_set_no": 999,
        "meta_rev_at_epoch": 97941,
        "meta_bstar": 0.0036068306,
        "meta_mean_motion_dot": 0.00012139,
        "meta_mean_motion_ddot": 0,
        "tle_line1": "1 29912U 99025HJ  25339.97099674  .00012139  00000+0  36068-2 0  9991",
        "tle_line2": "2 29912  98.7394  77.2483 0042633 238.4959 181.0220 14.42823687979413"
      },
      "geometry": {
        "type": "Point",
        "coordinates": [
          -100.8011993239825,
          9.221432169698378
        ]
      }
    },
    {
      "type": "Feature",
      "properties": {
        "norad_id": 29913,
        "name": "FENGYUN 1C DEB",
        "group": "fengyun-1c-debris",
        "lat": 1.2469810672373338,
        "lon": -20.691168766280047,
        "alt_km": 856.982584269741,
        "timestamp": "2025-12-06T11:28:11.334850+00:00",
        "meta_object_name": "FENGYUN 1C DEB",
        "meta_object_id": "1999-025HK",
        "meta_epoch": "2025-12-05T23:47:02.494176",
        "meta_mean_motion": 14.07370617,
        "meta_eccentricity": 0.00619549,
        "meta_inclination": 98.7873,
        "meta_ra_of_asc_node": 339.0283,
        "meta_arg_of_pericenter": 290.7499,
        "meta_mean_anomaly": 124.3888,
        "meta_ephemeris_type": 0,
        "meta_classification_type": "U",
        "meta_norad_cat_id": 29913,
        "meta_element_set_no": 999,
        "meta_rev_at_epoch": 96870,
        "meta_bstar": 0.00053688757,
        "meta_mean_motion_dot": 8.75e-06,
        "meta_mean_motion_ddot": 0,
        "tle_line1": "1 29913U 99025HK  25339.99100109  .00000875  00000+0  53689-3 0  9993",
        "tle_line2": "2 29913  98.7873 339.0283 0061954 290.7499 124.3888 14.07370617968701"
      },
      "geometry": {
        "type": "Point",
        "coordinates": [
          -20.691168766280047,
          1.2469810672373338
        ]
      }
    }
  ]
}